[{"OBJECT_NAME":"STARLINK-34351","OBJECT_ID":"2025-127T","EPOCH":"2026-03-09T07:32:12.472800","MEAN_MOTION":15.27598977,"ECCENTRICITY":1.197e-5,"INCLINATION":42.995,"RA_OF_ASC_NODE":181.5511,"ARG_OF_PERICENTER":283.2524,"MEAN_ANOMALY":76.8314,"EPHEMERIS_TYPE":0,"CLASSIFICATION_TYPE":"U","NORAD_CAT_ID":64387,"ELEMENT_SET_NO":999,"REV_AT_EPOCH":4241,"BSTAR":0.0012051213,"MEAN_MOTION_DOT":0.00033068,"MEAN_MOTION_DDOT":0},{"OBJECT_NAME":"CZ-2C R\/B","OBJECT_ID":"2025-266D","EPOCH":"2026-03-09T20:29:03.778080","MEAN_MOTION":15.32844431,"ECCENTRICITY":0.00801532,"INCLINATION":52.0528,"RA_OF_ASC_NODE":275.4841,"ARG_OF_PERICENTER":115.4113,"MEAN_ANOMALY":245.5197,"EPHEMERIS_TYPE":0,"CLASSIFICATION_TYPE":"U","NORAD_CAT_ID":66548,"ELEMENT_SET_NO":999,"REV_AT_EPOCH":1696,"BSTAR":0.00054134058,"MEAN_MOTION_DOT":0.00018939,"MEAN_MOTION_DDOT":0}]
